FLOCK 2P-5              
1 41616U 16040T   17327.22460688  .00006371  00000-0  26997-3 0  9998
2 41616  97.4444  28.9421 0009108 240.2184 119.8147 15.23463233 78858
FLOCK 2P-1              
1 41617U 16040U   17327.80256893  .00005152  00000-0  21827-3 0  9997
2 41617  97.4445  29.5502 0009151 238.4876 121.5467 15.23564547 78969
FLOCK 2P-3              
1 41618U 16040V   17327.30681012  .00006315  00000-0  26761-3 0  9992
2 41618  97.4445  28.9795 0009075 240.5856 119.4476 15.23464778 78886
BEESAT-4                
1 41619U 16040W   17327.12937024  .00002896  00000-0  13178-3 0  9998
2 41619  97.4436  27.8783 0010656 226.8068 133.2278 15.21470719 66758
3CAT-2                  
1 41732U 16051B   17327.81152542  .00002190  00000-0  89059-4 0  9995
2 41732  97.3743 242.4439 0015618  72.4163   6.0755 15.25493499 70869
FLOCK 2E'-13            
1 41761U 98067KH  17327.90135800  .00049932  00000-0  47141-3 0  9992
2 41761  51.6361 304.2393 0006983 126.5193 233.6447 15.66489715 67880
FLOCK 2E'-14            
1 41762U 98067KJ  17327.41833041  .00019094  00000-0  19112-3 0  9994
2 41762  51.6378 306.3050 0005858 120.7266 239.4307 15.65577405 67814
FLOCK 2E'-16            
1 41763U 98067KK  17327.39180378  .00059622  00000-0  54504-3 0  9995
2 41763  51.6378 305.3746 0005483 130.9304 229.2168 15.67225303 67783
FLOCK 2E'-15            
1 41764U 98067KL  17327.42368506  .00018164  00000-0  18729-3 0  9996
2 41764  51.6380 307.0863 0005419 129.3799 230.7677 15.64869142 67767
FLOCK 2E'-18            
1 41769U 98067KM  17327.40379837  .00017869  00000-0  18371-3 0  9992
2 41769  51.6379 306.9472 0003843 146.5449 213.5789 15.64963035 67765
FLOCK 2E'-17            
1 41776U 98067KN  17327.31890644  .00050525  00000-0  49533-3 0  9994
2 41776  51.6385 307.1619 0004510 148.9531 211.1732 15.65560220 67746
FLOCK 2E'-19            
1 41777U 98067KP  17327.35540783  .00031318  00000-0  26009-3 0  9997
2 41777  51.6357 300.5589 0003471 133.9743 226.1541 15.69881347 67792
FLOCK 2E'-20            
1 41782U 98067KQ  17327.51508258  .00026193  00000-0  23058-3 0  9998
2 41782  51.6368 301.6778 0003283 130.9254 229.2027 15.68564316 67669
CANX-7                  
1 41788U 16059F   17327.76810230  .00008803  00000-0  15762-2 0  9998
2 41788  98.1905  28.8454 0027781  32.7290 327.5708 14.66805372 61967
ALSAT 1N                
1 41789U 16059G   17327.73113109  .00000140  00000-0  35700-4 0  9999
2 41789  98.1479  28.1002 0028984  16.4629 343.7496 14.64102959 61959
RAVAN                   
1 41849U 16067B   17327.75817263  .00001382  00000-0  12409-3 0  9998
2 41849  97.9383  48.4129 0009561 126.6473 233.5629 14.97392607 56385
CELTEE 1                
1 41850U 16067C   17327.18660768  .00000813  00000-0  76529-4 0  9995
2 41850  97.9387  47.5934 0010278 124.0328 236.1871 14.96693905 56284
OPTICUBE 04             
1 41851U 16067D   17327.26802543 -.00000184  00000-0 -10791-4 0  9996
2 41851  97.9385  47.6399 0009979 125.0534 235.1625 14.96584816 56292
AEROCUBE 8D             
1 41852U 16067E   17327.27703372  .00000038  00000-0  86986-5 0  9994
2 41852  97.9394  47.5232 0010695 126.1211 234.1001 14.96351153 56281
AEROCUBE 8C             
1 41853U 16067F   17327.35313336  .00000334  00000-0  34923-4 0  9993
2 41853  97.9389  47.5765 0011113 127.7046 232.5184 14.96313320 56295
PROMETHEUS 2-1          
1 41854U 16067G   17327.23532014  .00001177  00000-0  10925-3 0  9998
2 41854  97.9395  47.4296 0011728 127.9448 232.2834 14.96344907 56273
PROMETHEUS 2-3          
1 41855U 16067H   17327.77245892  .00001275  00000-0  11794-3 0  9997
2 41855  97.9398  47.9748 0011961 126.4165 233.8161 14.96340315 56351
LEMUR-2-XIAOQING        
1 41871U 16062C   17327.65748121  .00003952  00000-0  17806-3 0  9994
2 41871  51.6300  48.9759 0004580  70.6972 289.4502 15.23315321 55240
LEMUR-2-SOKOLSKY        
1 41872U 16062D   17327.70384949  .00002841  00000-0  13150-3 0  9999
2 41872  51.6851  48.7035 0006277  89.2130 270.9573 15.23435647 55241
LEMUR-2-ANUBHAVTHAKUR   
1 41873U 16062E   17327.87502180  .00000351  00000-0  29552-4 0  9995
2 41873  51.6406  49.5639 0005553  89.2390 270.9224 15.21969439 55232
LEMUR-2-WINGO           
1 41874U 16062F   17327.63684860  .00004086  00000-0  18535-3 0  9993
2 41874  51.6499  49.4607 0007128  71.7258 288.4496 15.22993282 55226
STARS-C                 
1 41895U 98067KR  17327.42388719  .00108314  00000-0  63859-3 0  9990
2 41895  51.6359 304.0026 0003950 106.0319 254.1117 15.77337425 52967
ITF-2                   
1 41932U 98067KU  17327.40059321  .00030398  00000-0  29940-3 0  9993
2 41932  51.6395 312.2134 0004978 120.8558 239.2928 15.65684469 48420
WASEDA-SAT3             
1 41933U 98067KV  17327.33841373  .00038208  00000-0  34843-3 0  9998
2 41933  51.6372 310.9997 0004851 119.2031 240.9451 15.67485742 48432
AOBA-VELOX 3            
1 41935U 98067KX  17327.32700136  .00035022  00000-0  32834-3 0  9999
2 41935  51.6388 311.7082 0004467 118.6421 241.5025 15.66844772 48529
OSNSAT                  
1 41939U 98067KZ  17327.31220507  .00182834  00000-0  73887-3 0  9998
2 41939  51.6336 299.4537 0007215 106.2277 253.9521 15.85239226 47934
FLOCK 3P-8              
1 41951U 17008D   17327.37503008  .00004996  00000-0  21214-3 0  9993
2 41951  97.4770  28.1950 0008252   6.3697 353.7643 15.23507650 42763
FLOCK 3P-51             
1 41952U 17008E   17327.86987530  .00004062  00000-0  17262-3 0  9996
2 41952  97.4775  28.7819 0008673  22.5490 337.6127 15.23589491 42836
FLOCK 3P-37             
1 41953U 17008F   17327.21119528  .00005040  00000-0  21034-3 0  9999
2 41953  97.4776  28.2738 0008127  29.9628 330.2073 15.24091234 42744
INS-1B                  
1 41954U 17008G   17327.83167724  .00002318  00000-0  10335-3 0  9996
2 41954  97.4744  28.2705 0009459   3.5672 356.5630 15.22396679 42750
FLOCK 3P-19             
1 41955U 17008H   17327.84901596  .00002344  00000-0  10100-3 0  9990
2 41955  97.4766  28.6188 0009029   3.5502 356.5798 15.23550914 42759
FLOCK 3P-24             
1 41956U 17008J   17327.84299554  .00005400  00000-0  22738-3 0  9991
2 41956  97.4762  28.6247 0008644   0.2606 359.8634 15.23753796 42830
FLOCK 3P-18             
1 41957U 17008K   17327.31917348  .00004926  00000-0  20814-3 0  9997
2 41957  97.4763  28.1029 0008854   4.0682 356.0625 15.23678597 42591
FLOCK 3P-22             
1 41958U 17008L   17327.59054305  .00002187  00000-0  94578-4 0  9999
2 41958  97.4767  28.3566 0008700   4.0259 356.1046 15.23515276 42620
FLOCK 3P-21             
1 41959U 17008M   17327.38345676  .00002476  00000-0  10671-3 0  9993
2 41959  97.4773  28.1911 0008608   6.5658 353.5690 15.23503637 42609
FLOCK 3P-28             
1 41960U 17008N   17327.84139594  .00002683  00000-0  11538-3 0  9999
2 41960  97.4772  28.6450 0008449   2.9855 357.1430 15.23502841 42759
FLOCK 3P-26             
1 41961U 17008P   17327.19155392  .00003377  00000-0  14423-3 0  9999
2 41961  97.4770  27.9783 0008718   4.6252 355.5064 15.23549270 42570
FLOCK 3P-17             
1 41962U 17008Q   17327.30545590  .00004803  00000-0  20398-3 0  9999
2 41962  97.4770  28.1340 0008568   7.3505 352.7856 15.23521619 42549
FLOCK 3P-27             
1 41963U 17008R   17327.59524697  .00002114  00000-0  91464-4 0  9992
2 41963  97.4770  28.3607 0008761   3.6073 356.5226 15.23522800 42638
FLOCK 3P-25             
1 41964U 17008S   17327.38463469  .00002429  00000-0  10487-3 0  9993
2 41964  97.4769  28.1757 0008482   5.0890 355.0432 15.23455329 42582
FLOCK 3P-4              
1 41965U 17008T   17327.31279423  .00003831  00000-0  16338-3 0  9991
2 41965  97.4771  28.1279 0008446   6.8007 353.3343 15.23508849 42672
FLOCK 3P-2              
1 41966U 17008U   17327.83915865  .00003106  00000-0  13299-3 0  9994
2 41966  97.4771  28.6563 0008218   3.2571 356.8718 15.23522733 42670
FLOCK 3P-1              
1 41967U 17008V   17327.86240699  .00003834  00000-0  16422-3 0  9993
2 41967  97.4774  28.6311 0008387   5.0162 355.1157 15.23363805 42670
FLOCK 3P-3              
1 41968U 17008W   17327.84217820  .00004863  00000-0  20653-3 0  9996
2 41968  97.4768  28.6437 0008328   3.7362 356.3936 15.23514641 42758
FLOCK 3P-6              
1 41969U 17008X   17327.83642302  .00002604  00000-0  11203-3 0  9995
2 41969  97.4773  28.6607 0008098   3.3756 356.7534 15.23508313 42668
FLOCK 3P-7              
1 41970U 17008Y   17327.22694370  .00003276  00000-0  14008-3 0  9994
2 41970  97.4774  28.0982 0008391   8.4804 351.6573 15.23527556 42574
FLOCK 3P-5              
1 41971U 17008Z   17327.30860317  .00004292  00000-0  18268-3 0  9991
2 41971  97.4775  28.1475 0008294   8.3267 351.8106 15.23508887 42523
FLOCK 3P-12             
1 41972U 17008AA  17327.30718531  .00003317  00000-0  14193-3 0  9992
2 41972  97.4774  28.1473 0008181   8.9032 351.2348 15.23501910 42670
FLOCK 3P-9              
1 41973U 17008AB  17327.37627262  .00004351  00000-0  18514-3 0  9990
2 41973  97.4775  28.2131 0008227   6.0573 354.0761 15.23510625 42688
FLOCK 3P-10             
1 41974U 17008AC  17327.36426255  .00003184  00000-0  13621-3 0  9996
2 41974  97.4777  28.2328 0008157   8.0646 352.0721 15.23532213 42573
FLOCK 3P-11             
1 41975U 17008AD  17327.31171490  .00003975  00000-0  16944-3 0  9999
2 41975  97.4775  28.1459 0008358   6.8515 353.2834 15.23504809 42567
FLOCK 3P-60             
1 41976U 17008AE  17327.87836890  .00005035  00000-0  21347-3 0  9995
2 41976  97.4776  28.7740 0008026   7.8483 352.2878 15.23557297 42011
FLOCK 3P-58             
1 41977U 17008AF  17327.30792349  .00006763  00000-0  28598-3 0  9998
2 41977  97.4775  28.1489 0008121   8.3857 351.7514 15.23519076 42757
FLOCK 3P-57             
1 41978U 17008AG  17327.29994345  .00004592  00000-0  19508-3 0  9996
2 41978  97.4774  28.1601 0008136   6.8909 353.2438 15.23539386 42590
